GOES 1 (SMS-C) [-]      
1 08366U 75100A   22211.21575524 -.00000218  00000+0  00000+0 0  9995
2 08366   8.1754 295.1932 0002460 227.7380 141.6604  1.00279364170857
GOES 2 [-]              
1 10061U 77048A   22211.25441522 -.00000155  00000+0  00000+0 0  9997
2 10061   9.7549 306.6373 0010315  30.1624 351.2578  0.99396044 32187
GOES 3 [-]              
1 10953U 78062A   22210.57906992 -.00000299  00000+0  00000+0 0  9994
2 10953  10.0865 311.1545 0003554 153.1690 197.2521  0.99365401114439
GOES 4 [-]              
1 11964U 80074A   22211.52181564 -.00000061  00000+0  00000+0 0  9996
2 11964  11.0443 314.9700 0032708  77.6992 293.8095  0.99232613113376
GOES 5 [-]              
1 12472U 81049A   22211.25345601 -.00000252  00000+0  00000+0 0  9990
2 12472  11.8847 326.3413 0002602 158.1801 197.7070  1.00316815108626
GOES 6 [-]              
1 14050U 83041A   22211.25319441 -.00000247  00000+0  00000+0 0  9995
2 14050  12.4437 331.6460 0005507 145.6698 203.4570  1.00296972201798
GOES 7 [-]              
1 17561U 87022A   22210.64467597  .00000031  00000+0  00000+0 0  9996
2 17561  14.2059 348.2022 0006081  77.9752 302.8799  0.99906072112796
GOES 8 [-]              
1 23051U 94022A   22210.80604986 -.00000282  00000+0  00000+0 0  9997
2 23051  13.2115  23.8905 0007216  51.9447 315.5733  0.98908094110106
GOES 9 [-]              
1 23581U 95025A   22211.13346556 -.00000005  00000+0  00000+0 0  9995
2 23581  12.7049  24.2219 0009194  99.5396 273.6011  0.98799261 98758
GOES 10 [-]             
1 24786U 97019A   22211.43664801 -.00000251  00000+0  00000+0 0  9990
2 24786  11.4660  30.3913 0025620 198.3446 359.4236  0.99125306 92015
GOES 11 [-]             
1 26352U 00022A   22211.40755021 -.00000243  00000+0  00000+0 0  9992
2 26352   8.7719  58.9830 0002255  77.2919 295.0309  0.99045120 38430
GOES 12 [-]             
1 26871U 01031A   22211.18446156 -.00000021  00000+0  00000+0 0  9994
2 26871   9.5915  47.9035 0005725 345.6911 245.8969  0.99134929 76700
EWS-G1 (GOES 13) [+]    
1 29155U 06018A   22211.49620587  .00000041  00000+0  00000+0 0  9999
2 29155   0.7009  96.7739 0004766  93.6480 357.5458  1.00274408 29165
GOES 14 [B]             
1 35491U 09033A   22211.46315692 -.00000089  00000+0  00000+0 0  9997
2 35491   0.4154  94.8698 0013979 116.7880 158.5675  1.00272965 47899
GOES 15 [B]             
1 36411U 10008A   22211.53018687  .00000056  00000+0  00000+0 0  9999
2 36411   0.3875 100.1714 0002344  45.4844 225.2818  1.00280233 45451
GOES 16 [+]             
1 41866U 16071A   22211.46899935 -.00000245  00000+0  00000+0 0  9991
2 41866   0.0589 253.0633 0000509 296.6564 211.9913  1.00271089 20896
GOES 17 [+]             
1 43226U 18022A   22211.52818126  .00000101  00000+0  00000+0 0  9991
2 43226   0.0935 262.2791 0000172 223.1245 235.5731  1.00271467 16207
GOES 18 [+]             
1 51850U 22021A   22210.66746831  .00000099  00000+0  00000+0 0  9990
2 51850   0.0493 100.5495 0002647 113.3037 196.7407  1.00271876  1555
